JCAT , SatcatLaunch_Tag Piece     , Type     , Name                        , PLName                      , LDate      , Parent      , SDate              , Primary, DDate              , Status Dest   , Owner       , State , Manufacturer, Bus              , Motor       , Mass     , DryMass   , TotMass  , Length, Diamete, Span   , Shape                    , ODate      , Perigee, Apogee, Inc   , OpOrbitOQU AltNames, STATUS, OBJECT_NAME             , OBJECT_ID , EPOCH                     , MEAN_MOTION, ECCENTRICITY, INCLINATION, RA_OF_ASC_NODE, ARG_OF_PERICENTER, MEAN_ANOMALY, EPHEMERIS_TYPE, CLASSIFICATION_TYPE, NORAD_CAT_ID, ELEMENT_SET_NO, REV_AT_EPOCH, BSTAR         , MEAN_MOTION_DOT, MEAN_MOTION_DDOT, LAST_UPDATED       , DATA_SOURCE               , TLE_LINE1                                                            , TLE_LINE2                                                            , N2YO_SAT_NAME              , TLE_FETCHED
39270, 39270 2013-055   2013-055F , P        , POPACS 3                    , POPACS 3                    , 2013 Sep 29, S39293      , 2013 Sep 29 1617   , Earth  , -                  , O      -      , POPACS      , US    , PSC         , POPACS           , -           , 2        , 2         , 2        , 0.1   , 0.1    , 0.1    , Sphere                   , 2013 Oct 10, 324    , 1481  , 81.00 , LEO/I  -           , ACTIVE, POPACS 3                , 2013-055F , 2025-10-03T15:19:37.686432, 14.50192585, 0.05756831  ,     81.004 ,       146.1597,          128.1634,     237.2895,            0.0, U                  ,      39270.0,          999.0,      60129.0, 0.00040168508 , 0.00016263     , 0.0             , 2025-10-04 23:19:22, planet4589.org + Celestrak, 1 39270U 13055F   25276.63863063  .00016263  00000-0  40169-3 0  9993, 2 39270  81.0040 146.1597 0575683 128.1634 237.2895 14.50192585601292, POPACS 3                   , YES
39285, 39285 2013-056   2013-056A , P      O , Astra 2E                    , Astra 2E                    , 2013 Sep 29, S39286      , 2013 Sep 30 0650   , Earth  , -                  , O      -      , SESSA       , L     , EADSB       , Eurostar 3000    , R-4D?       , 6052     , 3000    ? , 6052     , 6.8   , 2.8    , 39.8   , Box + 2 panels           , 2013 Oct  7, 35672  , 35730 , 0.14  , GEO/D  -   EUTELSAT, ACTIVE, ASTRA 2E                , 2013-056A , 2025-10-03T20:38:10.170816,  1.00274434, 0.0002689   ,      0.0679,       332.8213,          221.755 ,     156.2944,            0.0, U                  ,      39285.0,          999.0,       4384.0, 0.0           , 1.51e-06       , 0.0             , 2025-10-04 23:19:22, planet4589.org + Celestrak, 1 39285U 13056A   25276.85983994  .00000151  00000-0  00000+0 0  9995, 2 39285   0.0679 332.8213 0002689 221.7550 156.2944  1.00274434 43845, ASTRA 2E                   , YES
39358, 39358 2013-057   2013-057A , P        , Shi Jian 16                 , Shi Jian 16 hao 01 xing     , 2013 Oct 25, S39359      , 2013 Oct 25 0405?  , Earth  , -                  , O      -      , NSMC        , CN    , SISE        , SJ-16            , -           , 2000    ?, 2000    ? , 2000    ?, 4.0  ?, 2.0  ? , 10.0  ?, Box + 2 Pan?             , 2013 Oct 27, 600    , 616   , 74.98 , LEO/I  -           , ACTIVE, SHIJIAN-16 (SJ-16)      , 2013-057A , 2025-10-03T14:07:30.580896, 14.9164601 , 0.00163742  ,     74.9706,       122.3515,          136.6898,     223.558 ,            0.0, U                  ,      39358.0,          999.0,      64807.0, 0.0002403429  , 2.393e-05      , 0.0             , 2025-10-04 23:19:22, planet4589.org + Celestrak, 1 39358U 13057A   25277.52753266  .00002063  00000-0  20760-3 0  9992, 2 39358  74.9704 120.5756 0016328 134.2703 225.9828 14.91649414648217, SHIJIAN-16 (SJ-16)         , YES
39360, 39360 2013-058   2013-058A , P        , Sirius FM-6                 , Sirius CD Radio 6           , 2013 Oct 25, S39361      , 2013 Oct 26 0320   , Earth  , -                  , O      -      , SIRX        , US    , SSL         , FS-1300          , R-4D-11-164 , 3800    ?, 1500    ? , 3800    ?, 5.2   , 5.6    , 24.8   , Box+2 panels             , 2013 Nov  2, 35706  , 35791 , 0.09  , GEO/D  -           , ACTIVE, FM-6                    , 2013-058A , 2025-10-03T09:34:46.252416,  1.0027394 , 0.00023146  ,      0.0259,       125.8507,           50.8273,     223.1976,            0.0, U                  ,      39360.0,          999.0,       4348.0, 0.0           , -1.7e-07       , 0.0             , 2025-10-04 23:19:22, planet4589.org + Celestrak, 1 39360U 13058A   25277.46282740 -.00000016  00000-0  00000+0 0  9991, 2 39360   0.0230 128.3530 0002069  47.9447 247.5639  1.00272403 43497, SIRIUS FM-6                , YES
39375, 39375 2013-062   2013-062A , P        , Raduga-1M                   , Globus-1M No. 13L           , 2013 Nov 11, S39376      , 2013 Nov 12 0847   , Earth  , -                  , O      -      , VVKO        , RU    , RESH/POLK   , KAUR-4           , -           , 2500    ?, 2200    ? , 2500    ?, 5.0  ?, 2.0  ? , 20.0  ?, Step Cyl + 2 Pan         , 2013 Nov 20, 35433  , 35748 , 0.17  , GEO/D  -           , ACTIVE, RADUGA-1M 3             , 2013-062A , 2025-10-03T13:48:53.563680,  1.00271926, 0.00027923  ,      5.3049,        75.4699,          306.0594,     233.2381,            0.0, U                  ,      39375.0,          999.0,       4353.0, 0.0           , 1.59e-06       , 0.0             , 2025-10-04 23:19:22, planet4589.org + Celestrak, 1 39375U 13062A   25277.14656953  .00000159  00000-0  00000+0 0  9995, 2 39375   5.3066  75.4623 0002736 307.2793  78.1277  1.00270946 43542, RADUGA-1M 3                , YES
39410, 39410 2013-065   2013-065A , P        , Yaogan Weixing 19           , Jianbing-9 03 xing          , 2013 Nov 20, S39411      , 2013 Nov 20 0352?  , Earth  , -                  , O      -      , ZZB         , CN    , SAST        , JB-9             , -           , 1040     , 1040      , 1040     , 1.5  ?, 1.5  ? , 5.0  ? , Box + 2 Pan              , 2013 Nov 22, 1201   , 1207  , 100.48, LEO/S  -           , ACTIVE, YAOGAN-19               , 2013-065A , 2025-10-03T15:35:08.961792, 13.15567459, 0.00090355  ,    100.0821,       259.8875,          322.7388,      37.3098,            0.0, U                  ,      39410.0,          999.0,      56991.0, 7.4338558e-05 , -1.4e-07       , 0.0             , 2025-10-04 23:19:22, planet4589.org + Celestrak, 1 39410U 13065A   25277.48595687 -.00000017  00000-0  68013-4 0  9998, 2 39410 100.0822 260.6842 0009014 320.7245  39.3214 13.15567517570024, YAOGAN 19                  , YES
39416, 39416 2013-066   2013-066A , P        , AprizeSat-7                 , AprizeSat-7                 , 2013 Nov 21, S39450      , 2013 Nov 21 0725   , Earth  , 2014 Feb?          , N      -      , SPQ         , US    , SPQ         , Aprize           , -           , 14       , 14        , 14       , 0.2   , 0.2    , 0.2    , Box + Ant                , 2013 Nov 23, 593    , 653   , 97.80 , LEO/S  -           , ACTIVE, APRIZESAT 7             , 2013-066A , 2025-10-03T14:41:32.433216, 14.90535582, 0.00360414  ,     97.7334,       229.2474,          344.5597,      15.4518,            0.0, U                  ,      39416.0,          999.0,      64299.0, 0.00046206158 , 4.515e-05      , 0.0             , 2025-10-04 23:19:22, planet4589.org + Celestrak, 1 39416U 13066A   25276.61218094  .00004515  00000-0  46206-3 0  9998, 2 39416  97.7334 229.2474 0036041 344.5597  15.4518 14.90535582642995, APRIZESAT 7                , YES
39417, 39417 2013-066   2013-066B , P        , TshepisoSat                 , ZACUBE-1                    , 2013 Nov 21, S39448      , 2013 Nov 21 0725   , Earth  , -                  , O      -      , CPUT        , ZA    , CPUT        , Cubesat 1U       , -           , 1.200    , 1.200     , 1.200    , 0.1   , 0.1    , 0.1    , Box                      , 2013 Dec  3, 593    , 683   , 97.80 , LEO/S  -   ZA-003  , ACTIVE, ZACUBE-1 (TSHEPISOSAT)  , 2013-066B , 2025-10-03T14:41:41.061120, 14.97887321, 0.00435883  ,     97.7912,       233.1611,           26.396 ,     333.9469,            0.0, U                  ,      39417.0,          999.0,      64227.0, 0.0010640153  , 0.00012727     , 0.0             , 2025-10-04 23:19:22, planet4589.org + Celestrak, 1 39417U 13066B   25276.61228080  .00012727  00000-0  10640-2 0  9991, 2 39417  97.7912 233.1611 0043588  26.3960 333.9469 14.97887321642270, ZACUBE                     , YES
39418, 39418 2013-066   2013-066C , P        , SkySat A                    , SkySat 1                    , 2013 Nov 21, S39450      , 2013 Nov 21 0725   , Earth  , -                  , O      -      , SKYBOX      , US    , SKYBOX      , SkyStat          , -           , 90       , 90        , 90       , 0.8   , 0.6    , 0.6    , Box                      , 2013 Nov 23, 567    , 597   , 97.81 , LLEO/S -           , ACTIVE, SKYSAT-A                , 2013-066C , 2025-10-03T10:07:56.661312, 15.10861569, 0.00239079  ,     97.423 ,       328.7599,          119.5553,     240.8064,            0.0, U                  ,      39418.0,          999.0,      64968.0, 0.00052722576 , 8.772e-05      , 0.0             , 2025-10-04 23:19:22, planet4589.org + Celestrak, 1 39418U 13066C   25276.42218358  .00008772  00000-0  52723-3 0  9992, 2 39418  97.4230 328.7599 0023908 119.5553 240.8064 15.10861569649685, SKYSAT 1                   , YES
